{"id":"399","name":"Earth","centerId":"10","centerName":"Sun ","epoch":"2000-Jan-01 12:00:00.0000","ephemerisTable":{"eccentricity":0.01711862906746885,"periapsis":147102954684.3549,"inclination":0.000418108606546181,"longitudeOfAscendingNode":135.0807182572469,"argumentOfPeriapsis":326.7282188569271,"timeOfPeriapsis":2451546.403877782,"meanMotion":0.00001139983756894531,"meanAnomaly":358.6172562416435,"trueAnomaly":358.5688856532555,"semiMajorAxis":149665014552.8626,"apoapsis":152227074421.3704,"siderealOrbitPeriod":31579397.32235206,"semiMinorAxis":149643083469.764,"semiLatusRectum":149621155600.32498,"linearEccentricity":2562059868.507404,"initialPosition":[147057841560.7374,0,3673924438.4236426],"initialVelocity":[743.8167267493542,0,-30282.923346228046]},"physicalDataTable":{"meanRadius":6371010,"mass":5.97219e+24,"siderealRotRate":0.00007292115,"gravParameter":398600435.436,"obliquity":23.4392911,"siderealRotationPeriod":86164.10063718943}}
